KUIPER-00152            
1 65772U 25217L   26002.33335648 -.00797926  00000+0 -50437-1 0  9990
2 65772  51.9015 326.2692 0002518 109.2682 259.0894 15.11032035  5715
KUIPER-00153            
1 65773U 25217M   26002.13023162  .00027374  00000+0  15942-2 0  9998
2 65773  51.8783 337.3629 0013613  93.0174 267.2360 15.11746116 15020
KUIPER-00155            
1 65774U 25217N   26002.33335648 -.01117151  00000+0 -38851-1 0  9995
2 65774  51.8685 325.2433 0007848  94.6614  12.5296 15.32057402  4719
KUIPER-00156            
1 65775U 25217P   26002.33335648  .00079319  00000+0  28750-2 0  9994
2 65775  51.8755 324.5374 0002454 110.6752 335.8103 15.27653830  5400
KUIPER-00158            
1 65776U 25217Q   26002.16363593  .00007439  00000+0  10031-2 0  9993
2 65776  51.9005 339.7690 0001162  49.9818 310.1247 14.79961110 14999
KUIPER-00163            
1 65777U 25217R   26002.33335648  .00026013  00000+0  34347-2 0  9998
2 65777  51.8982 341.5255 0000544 113.3038  85.8160 14.79850471  4978
KUIPER-00165            
1 65778U 25217S   26002.33335648 -.01056642  00000+0 -10390+0 0  9992
2 65778  51.8951 329.7663 0006232 111.2301 205.8936 14.94790219  5185
KUIPER-00166            
1 65779U 25217T   26002.33335648 -.00419860  00000+0 -12802-1 0  9999
2 65779  51.8720 324.4124 0005312  77.1412  83.4811 15.35112696  5922
